OBJECT_NAME,OBJECT_ID,EPOCH,MEAN_MOTION,ECCENTRICITY,INCLINATION,RA_OF_ASC_NODE,ARG_OF_PERICENTER,MEAN_ANOMALY,EPHEMERIS_TYPE,CLASSIFICATION_TYPE,NORAD_CAT_ID,ELEMENT_SET_NO,REV_AT_EPOCH,BSTAR,MEAN_MOTION_DOT,MEAN_MOTION_DDOT
KUIPER-00603,2026-118W,2026-06-15T04:17:37.138848,15.37530139,.00054205,51.8682,62.9735,152.8750,207.2521,0,U,69287,999,367,.36473351E-3,.13275E-3,0
KUIPER-00605,2026-118X,2026-06-15T04:24:51.906240,15.36998858,.00075026,51.8671,63.0050,160.1227,200.0053,0,U,69288,999,367,.37979324E-3,.13605E-3,0
KUIPER-00606,2026-118Y,2026-06-15T04:14:10.466592,15.37714002,.00046613,51.8706,62.9578,143.1866,216.9441,0,U,69289,999,367,.36014167E-3,.13182E-3,0
KUIPER-00607,2026-118Z,2026-06-15T04:19:03.693504,15.37404001,.00061064,51.8693,62.9797,154.6541,205.4747,0,U,69290,999,367,.51165398E-3,.18719E-3,0
KUIPER-00608,2026-118AA,2026-06-15T04:38:38.578848,15.35237015,.00087616,51.8607,63.0621,169.7276,190.3890,0,U,69291,999,367,-.52472542E-3,-.18591E-3,0
KUIPER-00610,2026-118AB,2026-06-15T04:05:44.889216,15.38350376,.00026636,51.8733,62.9156,129.4807,230.6416,0,U,69292,999,367,.49506266E-3,.18666E-3,0
KUIPER-00613,2026-118AC,2026-06-15T04:44:51.626400,15.35110669,.0010103,51.8631,63.0926,177.2071,182.8973,0,U,69293,999,367,-.9797352E-4,-.378E-4,0
KUIPER-00618,2026-118AD,2026-06-15T04:00:37.777824,15.38602289,.00018173,51.8732,62.8923,79.5865,280.5327,0,U,69294,999,367,.51269656E-3,.19509E-3,0
KUIPER-00620,2026-118AE,2026-06-15T04:04:50.229984,15.38270113,.00028627,51.8728,62.9127,114.9539,245.1746,0,U,69295,999,367,.48805361E-3,.18347E-3,0
STARLINK-37501,2026-119A,2026-06-15T06:00:02.000160,15.73554632,.00012872,97.2842,191.9647,83.8992,262.8104,0,U,69296,999,357,-.14864828E-1,-.1811608E-1,0
STARLINK-37496,2026-119B,2026-06-15T06:00:02.000160,15.73794006,.0001104,97.2841,191.9655,81.1990,266.4530,0,U,69297,999,357,-.21771976E-1,-.26575E-1,0
STARLINK-37519,2026-119C,2026-06-15T06:00:02.000160,15.72968650,.00011548,97.2846,191.9747,92.2731,276.9055,0,U,69298,999,357,-.15282803E-1,-.1815487E-1,0
STARLINK-37455,2026-119D,2026-06-12T14:07:06.079584,15.79682093,.00040545,97.2829,189.1634,36.6104,323.5440,0,U,69299,999,331,-.14431533E-2,-.255334E-2,0
STARLINK-37456,2026-119E,2026-06-15T06:00:02.000160,15.73748888,.00012459,97.2842,191.9788,79.8874,296.0610,0,U,69300,999,357,-.2146503E-1,-.2620758E-1,0
STARLINK-37630,2026-119F,2026-06-15T06:00:02.000160,15.56971876,.00020323,97.2842,191.8927,74.2417,94.4222,0,U,69301,999,373,-.38272649E-1,-.2410263E-1,0
STARLINK-37804,2026-119G,2026-06-15T06:00:02.000160,15.54798951,.00021838,97.2837,191.8901,89.9339,83.3250,0,U,69302,999,373,-.47818899E-1,-.278512E-1,0
STARLINK-37730,2026-119H,2026-06-15T05:46:13.564128,15.80854262,.0001425,97.2822,191.9846,13.8080,346.3227,0,U,69303,999,373,.10055838E-2,.197236E-2,0
STARLINK-37731,2026-119J,2026-06-15T06:00:02.000160,15.53598191,.0001796,97.2839,191.8942,68.4805,102.2551,0,U,69304,999,373,-.44753587E-1,-.2476999E-1,0
STARLINK-37734,2026-119K,2026-06-15T06:00:02.000160,15.71467996,.00014639,97.2843,191.9813,62.8593,322.8446,0,U,69305,999,373,-.2340654E-1,-.2596005E-1,0
STARLINK-37701,2026-119L,2026-06-15T07:16:38.666784,15.77732143,.00008416,97.2825,192.0516,25.2082,334.9226,0,U,69306,999,374,-.61477866E-2,-.921568E-2,0
STARLINK-37732,2026-119M,2026-06-15T05:43:42.894624,15.80887851,.0000944,97.2821,191.9873,85.8788,274.2588,0,U,69307,999,373,.90639008E-3,.177635E-2,0
STARLINK-37689,2026-119N,2026-06-15T06:00:02.000160,15.54095375,.00020386,97.2838,191.8960,98.8359,89.2796,0,U,69308,999,373,-.4448647E-1,-.2554469E-1,0
STARLINK-37619,2026-119P,2026-06-15T05:41:15.216288,15.80919522,.00011468,97.2822,191.9895,69.4481,290.6910,0,U,69309,999,373,.13526611E-2,.268352E-2,0
STARLINK-37794,2026-119Q,2026-06-15T06:00:02.000160,15.69632080,.00013154,97.2841,191.9892,48.0272,356.6970,0,U,69310,999,373,-.21242278E-1,-.2184266E-1,0
STARLINK-37795,2026-119R,2026-06-15T06:00:02.000160,15.55360400,.00016655,97.2837,191.9053,84.8056,124.6710,0,U,69311,999,373,-.45216938E-1,-.269992E-1,0
STARLINK-37790,2026-119S,2026-06-15T06:00:02.000160,15.76748133,.00017833,97.2838,192.0074,56.5648,31.0257,0,U,69312,999,373,-.14532819E-1,-.2006212E-1,0
STARLINK-37676,2026-119T,2026-06-15T02:30:56.454048,15.80852435,.00013611,97.2817,191.8628,59.4174,300.7228,0,U,69313,999,371,.11077877E-2,.217796E-2,0
STARLINK-37617,2026-119U,2026-06-15T06:00:02.000160,15.75815020,.00015939,97.2839,192.0134,66.9351,35.6733,0,U,69314,999,373,-.19624584E-1,-.2561556E-1,0
STARLINK-37627,2026-119V,2026-06-14T18:53:32.152416,15.80230891,.00014259,97.2817,191.5290,72.4250,287.7173,0,U,69315,999,366,-.32968523E-2,-.576083E-2,0
STARLINK-37738,2026-119W,2026-06-15T06:00:02.000160,15.76317922,.00015363,97.2838,192.0096,66.5557,26.6442,0,U,69316,999,373,-.19216568E-1,-.2564257E-1,0
