KUIPER-00603            
1 69287U 26118W   26166.17890207  .00013275  00000+0  36473-3 0  9998
2 69287  51.8682  62.9735 0005420 152.8750 207.2521 15.37530139  3677
KUIPER-00605            
1 69288U 26118X   26166.18393410  .00013605  00000+0  37979-3 0  9993
2 69288  51.8671  63.0050 0007502 160.1227 200.0053 15.36998858  3678
KUIPER-00606            
1 69289U 26118Y   26166.17651003  .00013182  00000+0  36014-3 0  9997
2 69289  51.8706  62.9578 0004661 143.1866 216.9441 15.37714002  3679
KUIPER-00607            
1 69290U 26118Z   26166.17990386  .00018719  00000+0  51165-3 0  9994
2 69290  51.8693  62.9797 0006106 154.6541 205.4747 15.37404001  3679
KUIPER-00608            
1 69291U 26118AA  26166.19350207 -.00018591  00000+0 -52473-3 0  9992
2 69291  51.8607  63.0621 0008761 169.7276 190.3890 15.35237015  3672
KUIPER-00610            
1 69292U 26118AB  26166.17065844  .00018666  00000+0  49506-3 0  9995
2 69292  51.8733  62.9156 0002663 129.4807 230.6416 15.38350376  3673
KUIPER-00613            
1 69293U 26118AC  26166.19781975 -.00003780  00000+0 -97974-4 0  9994
2 69293  51.8631  63.0926 0010103 177.2071 182.8973 15.35110669  3672
KUIPER-00618            
1 69294U 26118AD  26166.16710391  .00019509  00000+0  51270-3 0  9998
2 69294  51.8732  62.8923 0001817  79.5865 280.5327 15.38602289  3672
KUIPER-00620            
1 69295U 26118AE  26166.17002581  .00018347  00000+0  48805-3 0  9994
2 69295  51.8728  62.9127 0002862 114.9539 245.1746 15.38270113  3677
STARLINK-37501          
1 69296U 26119A   26166.25002315 -.01811608  00000+0 -14865-1 0  9991
2 69296  97.2842 191.9647 0001287  83.8992 262.8104 15.73554632  3579
STARLINK-37496          
1 69297U 26119B   26166.25002315 -.02657500  00000+0 -21772-1 0  9997
2 69297  97.2841 191.9655 0001104  81.1990 266.4530 15.73794006  3579
STARLINK-37519          
1 69298U 26119C   26166.25002315 -.01815487  00000+0 -15283-1 0  9997
2 69298  97.2846 191.9747 0001154  92.2731 276.9055 15.72968650  3573
STARLINK-37455          
1 69299U 26119D   26163.58826481 -.00255334  00000+0 -14432-2 0  9993
2 69299  97.2829 189.1634 0004054  36.6104 323.5440 15.79682093  3317
STARLINK-37456          
1 69300U 26119E   26166.25002315 -.02620758  00000+0 -21465-1 0  9996
2 69300  97.2842 191.9788 0001245  79.8874 296.0610 15.73748888  3578
STARLINK-37630          
1 69301U 26119F   26166.25002315 -.02410263  00000+0 -38273-1 0  9990
2 69301  97.2842 191.8927 0002032  74.2417  94.4222 15.56971876  3733
STARLINK-37804          
1 69302U 26119G   26166.25002315 -.02785120  00000+0 -47819-1 0  9994
2 69302  97.2837 191.8901 0002183  89.9339  83.3250 15.54798951  3730
STARLINK-37730          
1 69303U 26119H   26166.24043477  .00197236  00000+0  10056-2 0  9993
2 69303  97.2822 191.9846 0001425  13.8080 346.3227 15.80854262  3734
STARLINK-37731          
1 69304U 26119J   26166.25002315 -.02476999  00000+0 -44754-1 0  9992
2 69304  97.2839 191.8942 0001796  68.4805 102.2551 15.53598191  3736
STARLINK-37734          
1 69305U 26119K   26166.25002315 -.02596005  00000+0 -23407-1 0  9996
2 69305  97.2843 191.9813 0001463  62.8593 322.8446 15.71467996  3734
STARLINK-37701          
1 69306U 26119L   26166.30322531 -.00921568  00000+0 -61478-2 0  9993
2 69306  97.2825 192.0516 0000841  25.2082 334.9226 15.77732143  3748
STARLINK-37732          
1 69307U 26119M   26166.23869091  .00177635  00000+0  90639-3 0  9991
2 69307  97.2821 191.9873 0000944  85.8788 274.2588 15.80887851  3735
STARLINK-37689          
1 69308U 26119N   26166.25002315 -.02554469  00000+0 -44486-1 0  9997
2 69308  97.2838 191.8960 0002038  98.8359  89.2796 15.54095375  3732
STARLINK-37619          
1 69309U 26119P   26166.23698167  .00268352  00000+0  13527-2 0  9994
2 69309  97.2822 191.9895 0001146  69.4481 290.6910 15.80919522  3737
STARLINK-37794          
1 69310U 26119Q   26166.25002315 -.02184266  00000+0 -21242-1 0  9999
2 69310  97.2841 191.9892 0001315  48.0272 356.6970 15.69632080  3733
STARLINK-37795          
1 69311U 26119R   26166.25002315 -.02699920  00000+0 -45217-1 0  9996
2 69311  97.2837 191.9053 0001665  84.8056 124.6710 15.55360400  3738
STARLINK-37790          
1 69312U 26119S   26166.25002315 -.02006212  00000+0 -14533-1 0  9990
2 69312  97.2838 192.0074 0001783  56.5648  31.0257 15.76748133  3732
STARLINK-37676          
1 69313U 26119T   26166.10482007  .00217796  00000+0  11078-2 0  9994
2 69313  97.2817 191.8628 0001361  59.4174 300.7228 15.80852435  3718
STARLINK-37617          
1 69314U 26119U   26166.25002315 -.02561556  00000+0 -19625-1 0  9996
2 69314  97.2839 192.0134 0001593  66.9351  35.6733 15.75815020  3735
STARLINK-37627          
1 69315U 26119V   26165.78717769 -.00576083  00000+0 -32969-2 0  9996
2 69315  97.2817 191.5290 0001425  72.4250 287.7173 15.80230891  3666
STARLINK-37738          
1 69316U 26119W   26166.25002315 -.02564257  00000+0 -19217-1 0  9996
2 69316  97.2838 192.0096 0001536  66.5557  26.6442 15.76317922  3730
